Coordinates
version = 1
nRows=86
nColumns=2
inDegrees=yes
endheader
time	hip_flexion_l
0.000	-0.020
0.500	-0.030
1.000	-0.020
1.500	-0.020
2.000	-0.010
2.500	-0.000
3.000	-0.010
3.500	-0.010
4.000	-0.020
4.500	-0.020
5.000	-0.020
5.500	0.000
6.000	-0.000
6.500	0.000
7.000	0.000
7.500	0.010
8.000	0.010
8.500	0.030
9.000	0.050
9.500	0.050
10.000	0.020
10.500	-0.000
11.000	0.010
11.500	-0.060
12.000	-0.060
12.500	-0.090
13.000	-0.130
13.500	-0.150
14.000	-0.150
14.500	-0.120
15.000	-0.080
15.500	0.020
16.000	0.040
16.500	0.050
17.000	0.030
17.500	-0.030
18.000	-0.120
18.500	-0.250
19.000	-0.410
19.500	-0.510
20.000	-0.500
20.500	-0.480
21.000	-2.640
21.500	-0.370
22.000	-0.340
22.500	-0.320
23.000	-0.290
23.500	-0.230
24.000	-0.180
24.500	-0.130
25.000	-0.100
25.500	-0.100
26.000	-0.090
26.500	-0.080
27.000	-0.070
27.500	-0.010
28.000	0.060
28.500	0.070
29.000	0.120
29.500	0.070
30.000	-0.050
30.500	-0.200
31.000	-0.310
31.500	-0.270
32.000	-0.240
32.500	-0.170
33.000	-0.120
33.500	-0.080
34.000	-0.070
34.500	-0.080
35.000	-0.120
35.500	-0.160
36.000	-0.140
36.500	-0.130
37.000	-0.120
37.500	0.040
38.000	0.070
38.500	0.060
39.000	-0.020
39.500	-0.100
40.000	-0.120
40.500	-0.130
41.000	0.100
41.500	0.560
42.000	0.760
42.500	0.810
