Coordinates
version = 1
nRows=153
nColumns=2
inDegrees=yes
endheader
time	hip_flexion_l
0.000	-0.100
0.500	-0.100
1.000	-0.100
1.500	-0.100
2.000	-0.100
2.500	-0.270
3.000	-0.300
3.500	-0.180
4.000	-0.140
4.500	-0.140
5.000	-0.090
5.500	-0.140
6.000	-0.360
6.500	-0.400
7.000	-0.370
7.500	-0.330
8.000	-0.080
8.500	2.780
9.000	2.760
9.500	-0.040
10.000	-0.010
10.500	-0.060
11.000	-0.270
11.500	-0.330
12.000	-0.300
12.500	-0.350
13.000	-0.160
13.500	-0.090
14.000	2.730
14.500	2.770
15.000	2.690
15.500	0.080
16.000	0.060
16.500	-0.170
17.000	-0.280
17.500	-0.310
18.000	-0.230
18.500	-0.030
19.000	2.710
19.500	2.730
20.000	2.720
20.500	0.060
21.000	-0.170
21.500	-0.310
22.000	-0.310
22.500	-0.270
23.000	-0.180
23.500	-0.100
24.000	-0.090
24.500	2.780
25.000	2.760
25.500	2.740
26.000	2.720
26.500	2.700
27.000	2.700
27.500	2.700
28.000	2.690
28.500	0.030
29.000	0.030
29.500	0.030
30.000	0.030
30.500	0.010
31.000	-0.110
31.500	-0.220
32.000	-0.240
32.500	-0.180
33.000	-0.070
33.500	2.780
34.000	2.780
34.500	2.770
35.000	2.750
35.500	-0.010
36.000	-0.030
36.500	-0.270
37.000	-0.330
37.500	-0.310
38.000	-0.190
38.500	-0.060
39.000	2.750
39.500	2.760
40.000	2.780
40.500	0.030
41.000	-0.090
41.500	-0.340
42.000	-0.360
42.500	-0.310
43.000	-0.230
43.500	-0.080
44.000	-0.040
44.500	2.700
45.000	2.690
45.500	2.680
46.000	0.020
46.500	-0.290
47.000	-0.350
47.500	-0.360
48.000	-0.310
48.500	0.290
49.000	0.740
49.500	1.050
50.000	0.750
50.500	0.830
51.000	0.940
51.500	0.950
52.000	0.920
52.500	0.900
53.000	0.890
53.500	0.870
54.000	0.860
54.500	0.850
55.000	0.850
55.500	0.840
56.000	0.830
56.500	0.830
57.000	0.830
57.500	0.820
58.000	0.820
58.500	0.820
59.000	0.820
59.500	0.820
60.000	0.820
60.500	0.820
61.000	0.820
61.500	0.810
62.000	0.810
62.500	0.810
63.000	0.810
63.500	0.810
64.000	0.810
64.500	0.810
65.000	0.810
65.500	0.810
66.000	0.810
66.500	0.810
67.000	0.810
67.500	0.810
68.000	0.810
68.500	0.810
69.000	0.810
69.500	0.810
70.000	0.810
70.500	0.810
71.000	0.810
71.500	0.810
72.000	0.810
72.500	0.810
73.000	0.810
73.500	0.810
74.000	0.810
74.500	0.810
75.000	0.810
75.500	0.810
76.000	0.810
